0 COSMOS 2251 DEB
1 37328U 93036BKU 13277.05107965  .00009620  00000-0  16405-2 0  2119
2 37328 074.0156 048.4224 0056626 308.4624 051.2269 14.68030068218365
0 COSMOS 2251 DEB
1 37328U 93036BKU 13281.68483807  .00010730  00000-0  18020-2 0  2125
2 37328 073.9995 039.4223 0069381 300.4373 059.2688 14.68146179219048
0 COSMOS 2251 DEB
1 37328U 93036BKU 13282.63875462  .00011006  00000-0  18432-2 0  2138
2 37328 073.9990 037.5728 0071244 297.8681 061.6594 14.68173132219181
0 COSMOS 2251 DEB
1 37328U 93036BKU 13288.63443715  .00025934  00000-0  43312-2 0  2147
2 37328 074.0127 025.9591 0064350 281.3787 078.0159 14.68432864220067
